ONEWEB-0309             
1 49095U 21075W   26198.38755259  .00000036  00000+0  59156-4 0  9990
2 49095  87.9148 359.8548 0002370  91.9797 268.1606 13.17650911237557
ONEWEB-0310             
1 49096U 21075X   26198.65423569 -.00001819  00000+0 -50920-2 0  9997
2 49096  87.8967 344.6211 0001960 100.2624 259.8726 13.12450315239184
ONEWEB-0311             
1 49097U 21075Y   26198.39431174  .00000027  00000+0  35168-4 0  9997
2 49097  87.9148 359.8533 0001693  80.2791 279.8532 13.17648499237606
ONEWEB-0312             
1 49098U 21075Z   26198.40950443  .00000035  00000+0  57811-4 0  9993
2 49098  87.9145 359.8611 0002017  83.7603 276.3759 13.17648607237583
ONEWEB-0313             
1 49099U 21075AA  26198.41441551  .00000024  00000+0  28898-4 0  9991
2 49099  87.9144 359.8649 0001809  89.3863 270.7476 13.17649889237578
ONEWEB-0314             
1 49100U 21075AB  26198.38080047  .00000089  00000+0  19718-3 0  9990
2 49100  87.9158 359.8474 0002022  82.2120 277.9242 13.17651014237548
ONEWEB-0315             
1 49101U 21075AC  26198.39843179  .00000483  00000+0  13079-2 0  9996
2 49101  87.8974 344.6385 0001576  87.3268 272.8041 13.12442626239139
ONEWEB-0316             
1 49102U 21075AD  26198.66130329 -.00000015  00000+0 -71677-4 0  9996
2 49102  87.9196 329.3961 0001979  99.0445 261.0911 13.18686371241223
ONEWEB-0317             
1 49103U 21075AE  26198.40182038  .00000459  00000+0  12418-2 0  9999
2 49103  87.8969 344.6614 0002503 107.2309 252.9094 13.12442369239152
ONEWEB-0318             
1 49104U 21075AF  26198.65779333  .00000007  00000+0 -14795-4 0  9999
2 49104  87.9198 329.3990 0001788  93.8336 266.3000 13.18686679241181
ONEWEB-0319             
1 49105U 21075AG  26198.01631704 -.00000006  00000+0 -48552-4 0  9997
2 49105  87.9145 359.9338 0001480  80.8790 279.2509 13.17647669237534
ONEWEB-0323             
1 49106U 21075AH  26198.38318284  .00000223  00000+0  58315-3 0  9999
2 49106  87.8974 344.6470 0001591  79.4920 280.6388 13.12443541238512
ONEWEB-0329             
1 49107U 21075AJ  26198.40442571 -.00000123  00000+0 -35048-3 0  9999
2 49107  87.9148 359.8574 0001910  88.1544 271.9807 13.17648268237565
ONEWEB-0330             
1 49108U 21075AK  26198.40793587  .00000023  00000+0  25386-4 0  9998
2 49108  87.9149 359.8682 0001999  89.2263 270.9098 13.17646805237605
ONEWEB-0292             
1 49186U 21083A   26198.56041510  .00000065  00000+0  14218-3 0  9999
2 49186  87.8980 314.1936 0001810  97.8322 262.3013 13.13469775234910
ONEWEB-0303             
1 49187U 21083B   26198.65441523  .00000004  00000+0 -23542-4 0  9993
2 49187  87.9197 329.3980 0001806  94.3591 265.7747 13.18683858233997
ONEWEB-0306             
1 49188U 21083C   26198.64430798 -.00000004  00000+0 -43978-4 0  9991
2 49188  87.9199 329.3891 0002109 100.9318 259.2052 13.18684681234037
ONEWEB-0307             
1 49189U 21083D   26198.32595378  .00000180  00000+0  45704-3 0  9994
2 49189  87.8981 314.2378 0001895  96.6281 263.5064 13.13468114234880
ONEWEB-0320             
1 49190U 21083E   26197.90575878 -.00000012  00000+0 -64251-4 0  9997
2 49190  87.9190 329.5505 0001939  99.3056 260.8295 13.18687461233894
ONEWEB-0321             
1 49191U 21083F   26198.42799875  .00000011  00000+0 -53227-5 0  9991
2 49191  87.9182 268.4086 0002158 104.8373 255.3000 13.20772875240820
ONEWEB-0322             
1 49192U 21083G   26198.32173348  .00000301  00000+0  79055-3 0  9998
2 49192  87.8979 314.2384 0002075 111.5594 248.5757 13.13470291234873
ONEWEB-0324             
1 49193U 21083H   26197.87879867  .00000009  00000+0 -10761-4 0  9993
2 49193  87.9200 329.5467 0002071  95.1805 264.9563 13.18686453233916
ONEWEB-0325             
1 49194U 21083J   26198.33741942  .00000002  00000+0 -28812-4 0  9997
2 49194  87.9190 329.4612 0001837  99.6365 260.4975 13.18687192233981
ONEWEB-0326             
1 49195U 21083K   26198.35275242  .00000019  00000+0  15148-4 0  9990
2 49195  87.9199 329.4583 0001660  93.9502 266.1820 13.18686440233978
ONEWEB-0327             
1 49196U 21083L   26198.35247238  .00000034  00000+0  53837-4 0  9999
2 49196  87.9190 329.4602 0001496  96.4607 263.6695 13.18686454233992
ONEWEB-0328             
1 49197U 21083M   26198.61628735  .00000368  00000+0  97351-3 0  9992
2 49197  87.8989 314.1559 0002060  96.7039 263.4324 13.13470294234895
ONEWEB-0331             
1 49198U 21083N   26198.64936510 -.00000019  00000+0 -80783-4 0  9996
2 49198  87.9202 329.3933 0001690  89.6096 270.5230 13.18684655234024
ONEWEB-0333             
1 49199U 21083P   26198.30649758  .00000350  00000+0  92288-3 0  9993
2 49199  87.8984 314.2406 0001873 100.1459 259.9881 13.13470210234864
ONEWEB-0334             
1 49200U 21083Q   26198.13927535  .00000117  00000+0  25483-3 0  9993
2 49200  87.9185 268.4765 0002534 115.0899 245.0497 13.20769995240749
ONEWEB-0335             
1 49201U 21083R   26198.30141734  .00000271  00000+0  70636-3 0  9993
2 49201  87.8979 314.2393 0001820  95.7052 264.4285 13.13469309234874
